NOAA 19                 
1 33591U 09005A   21324.17738838  .00000047  00000-0  50709-4 0  9998
2 33591  99.1725 348.6667 0014670  57.9710 302.2883 14.12509307658909
